GSAT-29                 
1 43698U 18089A   26198.84912394  .00000076  00000+0  00000+0 0  9993
2 43698   0.0425 252.2908 0003098 206.6301 197.4990  1.00268174 28096
ES'HAIL 2               
1 43700U 18090A   26198.83933672  .00000135  00000+0  00000+0 0  9996
2 43700   0.0143  73.7605 0002330  84.7371 105.0912  1.00272480 27988
GEO-KOMPSAT-2A          
1 43823U 18100A   26198.50716203 -.00000353  00000+0  00000+0 0  9990
2 43823   0.0319 166.1558 0002281 290.0894 149.9033  1.00273401 27930
GSAT-11                 
1 43824U 18100B   26198.92408074 -.00000086  00000+0  00000+0 0  9994
2 43824   0.0473 243.0385 0007772 215.1977 244.1657  1.00271434 27782
GSAT-7A                 
1 43864U 18105A   26198.92191406  .00000018  00000+0  00000+0 0  9995
2 43864   0.0916  91.2641 0001780  20.9421 218.1580  1.00272052 27755
COSMOS 2533             
1 43867U 18107A   26198.82581317 -.00000046  00000+0  00000+0 0  9995
2 43867   0.0367 115.1601 0000345 128.5769  59.1725  1.00266380 27757
TJS-3                   
1 43874U 18110A   26198.77330088 -.00000226  00000+0  00000+0 0  9998
2 43874   2.6218  80.1232 0002606  87.4525 194.6197  1.00271462 27726
ZHONGXING-2D            
1 43920U 19001A   26198.93526080  .00000000  00000+0  00000+0 0  9996
2 43920   0.0161 238.3139 0000561 116.5296  47.6101  1.00273746 54388
HELLAS-SAT 4 & SGS-1    
1 44034U 19007A   26198.34836456  .00000143  00000+0  00000+0 0  9993
2 44034   0.0683 123.8619 0005717  24.0009 311.7169  1.00272201 27674
GSAT-31                 
1 44035U 19007B   26198.84765060  .00000116  00000+0  00000+0 0  9991
2 44035   0.0216 100.2821 0000799 122.4927  65.9038  1.00272313 27271
NUSANTARA SATU          
1 44048U 19009A   26198.65329385 -.00000244  00000+0  00000+0 0  9995
2 44048   0.0312 119.7538 0004748  11.3564 185.5443  1.00271075 27074
ZHONGXING-6C            
1 44067U 19012A   26198.93534747 -.00000344  00000+0  00000+0 0  9992
2 44067   0.0526  63.3654 0014901 350.9494 348.5925  1.00273693 27042
WGS 10 (USA 291)        
1 44071U 19014A   26198.19419797  .00000037  00000+0  00000+0 0  9992
2 44071   0.0148  64.5861 0000115 214.5949 146.0340  1.00271803 26910
TIANLIAN 2-01           
1 44076U 19017A   26198.92477407 -.00000115  00000+0  00000+0 0  9991
2 44076   0.6174  83.0569 0001568  77.5495 185.0560  1.00271064 26957
ARABSAT-6A              
1 44186U 19021A   26198.83377906  .00000145  00000+0  00000+0 0  9993
2 44186   0.0456  16.0485 0001898 244.0285   6.2376  1.00274612 26460
BEIDOU-3 IGSO-1         
1 44204U 19023A   26197.32034861 -.00000209  00000+0  00000+0 0  9991
2 44204  58.7368  37.3490 0025911 224.0979 267.2124  1.00282972  7507
BEIDOU-2 G8             
1 44231U 19027A   26198.86680288 -.00000257  00000+0  00000+0 0  9998
2 44231   1.7342  74.5018 0009678 282.2079  35.5390  1.00270905 26386
YAMAL 601               
1 44307U 19031A   26198.84791060  .00000111  00000+0  00000+0 0  9994
2 44307   0.0160  74.2408 0002399  36.5597 179.1059  1.00272855 26235
AT&T T-16               
1 44333U 19034A   26198.46182722 -.00000125  00000+0  00000+0 0  9999
2 44333   0.0143  73.6211 0000663 281.6891   5.3659  1.00274290 25939
EUTELSAT 7C             
1 44334U 19034B   26198.84489163  .00000039  00000+0  00000+0 0  9994
2 44334   0.0774 180.7600 0003262 281.4745 144.5906  1.00270379  7144
BEIDOU-3 IGSO-2         
1 44337U 19035A   26198.79038544 -.00000127  00000+0  00000+0 0  9994
2 44337  55.2514 158.5934 0039283 216.3777 323.5324  1.00256724 25970
COSMOS 2539             
1 44457U 19048A   26198.99586785  .00000073  00000+0  00000+0 0  9997
2 44457   0.0337 105.6630 0000773  22.2177 178.4345  1.00277192 25534
EDRS-C                  
1 44475U 19049A   26198.93751414 -.00000271  00000+0  00000+0 0  9996
2 44475   0.0123 115.6689 0000945  10.9699 289.1082  1.00271153 25513
INTELSAT 39 (IS-39)     
1 44476U 19049B   26198.95649451  .00000000  00000+0  00000+0 0  9995
2 44476   0.0207  56.3117 0000909 294.9928 350.7547  1.00269746 25430
AMOS-17                 
1 44479U 19050A   26198.91264068  .00000101  00000+0  00000+0 0  9995
2 44479   0.0180 353.5293 0001569 135.0063 152.7572  1.00274901 25491
AEHF-5 (USA 292)        
1 44481U 19051A   26198.92798076 -.00000266  00000+0  00000+0 0  9994
2 44481   1.4290 338.6483 0064879 357.4528  26.7861  1.00273211 25578
EUTELSAT 5 WEST B       
1 44624U 19067A   26198.76591838 -.00000051  00000+0  00000+0 0  9991
2 44624   0.0802 318.9841 0002895 159.7236  87.5934  1.00272734 24742
TJS-4                   
1 44637U 19070A   26198.98799765 -.00000179  00000+0  00000+0 0  9993
2 44637   0.1028 260.2801 0000311  38.4044  76.3507  1.00273784 24842
TIBA-1                  
1 44800U 19080A   26198.83377906  .00000147  00000+0  00000+0 0  9993
2 44800   0.0547  22.9713 0002011 104.5099 143.7940  1.00272475 24361
INMARSAT GX5            
1 44801U 19080B   26198.82787851  .00000065  00000+0  00000+0 0  9996
2 44801   0.0345  10.6138 0002092 116.8177 117.2577  1.00269395  7095
JCSAT-18 (KACIFIC 1)    
1 44868U 19091A   26198.79662547  .00000000  00000+0  00000+0 0  9990
2 44868   0.0095 257.5724 0000371   1.0106 113.7961  1.00263943 24313
ELEKTRO-L 3             
1 44903U 19095A   26198.99578463 -.00000105  00000+0  00000+0 0  9996
2 44903   0.3344  82.3228 0001407  20.0447 267.9036  1.00271518 24015
