OBJECT_NAME,OBJECT_ID,EPOCH,MEAN_MOTION,ECCENTRICITY,INCLINATION,RA_OF_ASC_NODE,ARG_OF_PERICENTER,MEAN_ANOMALY,EPHEMERIS_TYPE,CLASSIFICATION_TYPE,NORAD_CAT_ID,ELEMENT_SET_NO,REV_AT_EPOCH,BSTAR,MEAN_MOTION_DOT,MEAN_MOTION_DDOT
GSAT-29,2018-089A,2026-07-17T20:22:44.308416,1.00268174,.00030982,0.0425,252.2908,206.6301,197.4990,0,U,43698,999,2809,0,.76E-6,0
ES'HAIL 2,2018-090A,2026-07-17T20:08:38.692608,1.00272480,.00023304,0.0143,73.7605,84.7371,105.0912,0,U,43700,999,2798,0,.135E-5,0
GEO-KOMPSAT-2A,2018-100A,2026-07-17T12:10:18.799392,1.00273401,.0002281,0.0319,166.1558,290.0894,149.9033,0,U,43823,999,2793,0,-.353E-5,0
GSAT-11,2018-100B,2026-07-17T22:10:40.575936,1.00271434,.00077727,0.0473,243.0385,215.1977,244.1657,0,U,43824,999,2778,0,-.86E-6,0
GSAT-7A,2018-105A,2026-07-17T22:07:33.374784,1.00272052,.00017806,0.0916,91.2641,20.9421,218.1580,0,U,43864,999,2775,0,.18E-6,0
COSMOS 2533,2018-107A,2026-07-17T19:49:10.257888,1.00266380,.00003459,0.0367,115.1601,128.5769,59.1725,0,U,43867,999,2775,0,-.46E-6,0
TJS-3,2018-110A,2026-07-17T18:33:33.196032,1.00271462,.0002606,2.6218,80.1232,87.4525,194.6197,0,U,43874,999,2772,0,-.226E-5,0
ZHONGXING-2D,2019-001A,2026-07-17T22:26:46.533120,1.00273746,.00005617,0.0161,238.3139,116.5296,47.6101,0,U,43920,999,5438,0,0,0
HELLAS-SAT 4 & SGS-1,2019-007A,2026-07-17T08:21:38.697984,1.00272201,.0005717,0.0683,123.8619,24.0009,311.7169,0,U,44034,999,2767,0,.143E-5,0
GSAT-31,2019-007B,2026-07-17T20:20:37.011840,1.00272313,.00007996,0.0216,100.2821,122.4927,65.9038,0,U,44035,999,2727,0,.116E-5,0
NUSANTARA SATU,2019-009A,2026-07-17T15:40:44.588640,1.00271075,.00047484,0.0312,119.7538,11.3564,185.5443,0,U,44048,999,2707,0,-.244E-5,0
ZHONGXING-6C,2019-012A,2026-07-17T22:26:54.021408,1.00273693,.00149016,0.0526,63.3654,350.9494,348.5925,0,U,44067,999,2704,0,-.344E-5,0
WGS 10 (USA 291),2019-014A,2026-07-17T04:39:38.704608,1.00271803,.00001154,0.0148,64.5861,214.5949,146.0340,0,U,44071,999,2691,0,.37E-6,0
TIANLIAN 2-01,2019-017A,2026-07-17T22:11:40.479648,1.00271064,.00015683,0.6174,83.0569,77.5495,185.0560,0,U,44076,999,2695,0,-.115E-5,0
ARABSAT-6A,2019-021A,2026-07-17T20:00:38.510784,1.00274612,.00018987,0.0456,16.0485,244.0285,6.2376,0,U,44186,999,2646,0,.145E-5,0
BEIDOU-3 IGSO-1,2019-023A,2026-07-16T07:41:18.119904,1.00282972,.00259114,58.7368,37.3490,224.0979,267.2124,0,U,44204,999,750,0,-.209E-5,0
BEIDOU-2 G8,2019-027A,2026-07-17T20:48:11.768832,1.00270905,.00096783,1.7342,74.5018,282.2079,35.5390,0,U,44231,999,2638,0,-.257E-5,0
YAMAL 601,2019-031A,2026-07-17T20:20:59.475840,1.00272855,.00023993,0.0160,74.2408,36.5597,179.1059,0,U,44307,999,2623,0,.111E-5,0
AT&T T-16,2019-034A,2026-07-17T11:05:01.871808,1.00274290,.0000663,0.0143,73.6211,281.6891,5.3659,0,U,44333,999,2593,0,-.125E-5,0
EUTELSAT 7C,2019-034B,2026-07-17T20:16:38.636832,1.00270379,.00032627,0.0774,180.7600,281.4745,144.5906,0,U,44334,999,714,0,.39E-6,0
BEIDOU-3 IGSO-2,2019-035A,2026-07-17T18:58:09.302016,1.00256724,.00392839,55.2514,158.5934,216.3777,323.5324,0,U,44337,999,2597,0,-.127E-5,0
COSMOS 2539,2019-048A,2026-07-17T23:54:02.982240,1.00277192,.00007737,0.0337,105.6630,22.2177,178.4345,0,U,44457,999,2553,0,.73E-6,0
EDRS-C,2019-049A,2026-07-17T22:30:01.221696,1.00271153,.00009454,0.0123,115.6689,10.9699,289.1082,0,U,44475,999,2551,0,-.271E-5,0
INTELSAT 39 (IS-39),2019-049B,2026-07-17T22:57:21.125664,1.00269746,.00009094,0.0207,56.3117,294.9928,350.7547,0,U,44476,999,2543,0,0,0
AMOS-17,2019-050A,2026-07-17T21:54:12.154752,1.00274901,.00015699,0.0180,353.5293,135.0063,152.7572,0,U,44479,999,2549,0,.101E-5,0
AEHF-5 (USA 292),2019-051A,2026-07-17T22:16:17.537664,1.00273211,.00648793,1.4290,338.6483,357.4528,26.7861,0,U,44481,999,2557,0,-.266E-5,0
EUTELSAT 5 WEST B,2019-067A,2026-07-17T18:22:55.348032,1.00272734,.00028958,0.0802,318.9841,159.7236,87.5934,0,U,44624,999,2474,0,-.51E-6,0
TJS-4,2019-070A,2026-07-17T23:42:42.996960,1.00273784,.00003111,0.1028,260.2801,38.4044,76.3507,0,U,44637,999,2484,0,-.179E-5,0
TIBA-1,2019-080A,2026-07-17T20:00:38.510784,1.00272475,.00020118,0.0547,22.9713,104.5099,143.7940,0,U,44800,999,2436,0,.147E-5,0
INMARSAT GX5,2019-080B,2026-07-17T19:52:08.703264,1.00269395,.00020923,0.0345,10.6138,116.8177,117.2577,0,U,44801,999,709,0,.65E-6,0
JCSAT-18 (KACIFIC 1),2019-091A,2026-07-17T19:07:08.440608,1.00263943,.00003717,0.0095,257.5724,1.0106,113.7961,0,U,44868,999,2431,0,0,0
ELEKTRO-L 3,2019-095A,2026-07-17T23:53:55.792032,1.00271518,.0001407,0.3344,82.3228,20.0447,267.9036,0,U,44903,999,2401,0,-.105E-5,0
